[{"OBJECT_NAME":"STARLINK-31647","OBJECT_ID":"2024-062R","EPOCH":"2026-03-09T22:13:45.524640","MEAN_MOTION":15.30192628,"ECCENTRICITY":0.00010648,"INCLINATION":53.1597,"RA_OF_ASC_NODE":254.8822,"ARG_OF_PERICENTER":82.5131,"MEAN_ANOMALY":277.5991,"EPHEMERIS_TYPE":0,"CLASSIFICATION_TYPE":"U","NORAD_CAT_ID":59389,"ELEMENT_SET_NO":999,"REV_AT_EPOCH":10970,"BSTAR":2.3506104e-5,"MEAN_MOTION_DOT":3.37e-6,"MEAN_MOTION_DDOT":0},{"OBJECT_NAME":"FLOCK 4G-5","OBJECT_ID":"2025-009BG","EPOCH":"2026-03-09T10:57:11.608704","MEAN_MOTION":15.28679529,"ECCENTRICITY":0.00020946,"INCLINATION":97.4058,"RA_OF_ASC_NODE":151.2478,"ARG_OF_PERICENTER":314.5072,"MEAN_ANOMALY":45.5996,"EPHEMERIS_TYPE":0,"CLASSIFICATION_TYPE":"U","NORAD_CAT_ID":62663,"ELEMENT_SET_NO":999,"REV_AT_EPOCH":6369,"BSTAR":0.00040688068,"MEAN_MOTION_DOT":0.00011278,"MEAN_MOTION_DDOT":0}]
